IRIDIUM 112             
1 41925U 17003J   24029.25965732  .00000061  00000+0  14753-4 0  9998
2 41925  86.3940  91.8902 0002324  92.1871 267.9591 14.34217207368581
IRIDIUM 111             
1 41926U 17003K   24029.24696988  .00000249  00000+0  81988-4 0  9994
2 41926  86.3942  91.9472 0002175  86.0629 274.0816 14.34218878368566
IRIDIUM 113             
1 42803U 17039A   24029.36647170  .00000096  00000+0  27167-4 0  9999
2 42803  86.4009 325.6523 0002268  79.7370 280.4082 14.34216982346516
IRIDIUM 123             
1 42804U 17039B   24029.40795006  .00000219  00000+0  71102-4 0  9992
2 42804  86.3996 357.1205 0002215  83.0757 277.0691 14.34218594345289
IRIDIUM 120             
1 42805U 17039C   24029.36012884  .00000510  00000+0  17487-3 0  9993
2 42805  86.3996 325.5505 0002119  84.2602 275.8836 14.34217630346500
IRIDIUM 115             
1 42806U 17039D   24029.29383415  .00000672  00000+0  19381-3 0  9991
2 42806  86.4534 325.5822 0002266  79.1549 280.9907 14.43264331348797
IRIDIUM 118             
1 42807U 17039E   24029.43965507  .00000422  00000+0  14348-3 0  9997
2 42807  86.3997 357.1088 0002177  86.5345 273.6099 14.34222211345285
IRIDIUM 117             
1 42808U 17039F   24029.38892266  .00000128  00000+0  38771-4 0  9993
2 42808  86.3996 357.0959 0002129  81.9534 278.1903 14.34218096345300
